format  = 'OEF1.1'       ! file format
rectype = 'ML'           ! record type (1L/ML)
refsys  = ECLM J2000     ! default reference system
END_OF_HEADER
2015TF202
! Equinoctial elements: a, e*sin(LP), e*cos(LP), tan(i/2)*sin(LN), tan(i/2)*cos(LN), mean long.
 EQU   2.15534202376261E+00  -0.278543244604359   0.293954397411725    0.009246222882350    0.061836577184202 348.0076117328052
 MJD     57310.155427240 TDT
 MAG  19.303  0.150
! RMS    7.13315E-03   1.55973E-03   9.18902E-04   1.20114E-04   3.48103E-04   1.59441E-01
! EIG   1.15533E-07   1.82839E-07   6.99640E-06   5.28707E-05   7.75593E-04   7.83799E-03
! WEA   0.90944  -0.19817   0.09865   0.01408   0.04041  -0.34941
 COV   5.088188414867195E-05 -1.103456066632027E-05  5.380243701970947E-06
 COV   7.992941822372862E-07  2.296225916790619E-06 -1.110964368567702E-03
 COV   2.432766419159052E-06 -1.269265382011002E-06 -1.649102669414409E-07
 COV  -4.721026934754220E-07  2.477088529387501E-04  8.443799826251268E-07
 COV   6.187521556569432E-08  1.733556818845607E-07 -1.352600446599297E-04
 COV   1.442743979878384E-08  4.180005682756110E-08 -1.598924393962528E-05
 COV   1.211756472400443E-07 -4.564833484176979E-05  2.542156949587147E-02
 NOR   4.124308123766505E+10  1.405083645729757E+12 -3.994446848221339E+11
 NOR   3.992524602820756E+11 -1.800889478759913E+11 -1.408638384978926E+10
 NOR   5.285513132380338E+13 -1.457449967579179E+13  3.721682371529792E+12
 NOR  -1.077663115897568E+12 -5.307587403513884E+11  4.056618488803584E+12
 NOR  -1.960183128906107E+12  7.681816519567192E+11  1.462886290485194E+11
 NOR   2.437094196972486E+13 -1.208858219008343E+13 -3.562421993280122E+10
 NOR   6.031445389346753E+12  9.944969126051464E+09  5.329944033507256E+09
